OBJECT_NAME,OBJECT_ID,EPOCH,MEAN_MOTION,ECCENTRICITY,INCLINATION,RA_OF_ASC_NODE,ARG_OF_PERICENTER,MEAN_ANOMALY,EPHEMERIS_TYPE,CLASSIFICATION_TYPE,NORAD_CAT_ID,ELEMENT_SET_NO,REV_AT_EPOCH,BSTAR,MEAN_MOTION_DOT,MEAN_MOTION_DDOT
FLORIPASAT-1,2019-093G,2026-07-13T12:07:03.340992,15.04136627,.00109517,97.7934,288.9341,348.7309,11.3670,0,U,44885,999,35660,.23319973E-3,.3174E-4,0
SHUNTIAN,2019-093H,2026-07-13T13:47:59.344224,14.95273917,.00111323,97.8009,282.6025,343.0108,17.0738,0,U,44886,999,35612,.13177496E-3,.1394E-4,0
ELEKTRO-L 3,2019-095A,2026-07-13T13:49:34.571712,1.00271054,.00011374,0.3215,82.1213,19.3248,113.3853,0,U,44903,999,2397,0,-.101E-5,0
GONETS-M 14,2019-096A,2026-07-13T14:42:08.966592,12.42870834,.00143995,82.5228,68.2571,93.5542,266.7185,0,U,44905,999,29696,.47776742E-3,.76E-6,0
GONETS-M 15,2019-096B,2026-07-13T15:24:23.983200,12.42883136,.0016036,82.5248,68.7046,115.4022,244.8720,0,U,44906,999,29693,.50875716E-3,.81E-6,0
GONETS-M 16,2019-096C,2026-07-13T16:01:34.768128,12.42892287,.00109368,82.5193,67.6284,154.5554,205.6067,0,U,44907,999,29692,.29383954E-4,.14E-6,0
RS-44 & BREEZE-KM R/B,2019-096E,2026-07-13T10:19:34.099392,12.79748942,.02185508,82.5240,322.2668,83.0989,279.4919,0,U,44909,999,30570,-.4619573E-4,.1E-7,0
JILIN-1 KUANFU 01,2020-003A,2026-07-13T15:30:10.156032,15.10862015,.00091271,97.5022,268.0857,202.6193,157.4636,0,U,45016,999,35932,.92575661E-4,.1478E-4,0
XINGYUN-2 01,2020-028A,2026-07-13T14:47:25.791936,15.11910824,.00109185,97.4873,186.4951,108.1088,252.1332,0,U,45602,999,33883,.46965963E-4,.741E-5,0
XINGYUN-2 02,2020-028B,2026-07-13T14:23:28.976352,15.11636979,.00109343,97.5075,200.1281,170.9107,189.2323,0,U,45603,999,33882,.74480341E-4,.1203E-4,0
HAIYANG-1D,2020-036A,2026-07-13T14:58:25.644288,14.34180790,.0004056,98.4554,135.7296,73.6181,286.5450,0,U,45721,999,31876,-.35625155E-4,-.143E-5,0
M2 PATHFINDER,2020-037E,2026-07-13T12:19:06.894336,15.04788602,.00130535,97.8145,26.0427,67.6872,292.5736,0,U,45727,999,32945,.61445038E-4,.804E-5,0
GAOFEN DUOMO (GFDM),2020-042A,2026-07-13T15:07:29.565120,14.76913989,.00107942,97.7740,253.5531,355.7718,4.3399,0,U,45856,999,32491,.50687738E-4,.307E-5,0
ZIYUAN 3-03 (ZY 3-03),2020-051A,2026-07-13T15:00:24.642144,15.21191725,.00027039,97.5373,261.6420,254.8487,105.2449,0,U,45939,999,33136,.4500379E-5,.3E-6,0
NEMO-HD,2020-061F,2026-07-13T14:55:43.874112,15.45116697,.00009759,97.1911,256.3147,91.9865,268.1496,0,U,46277,999,32606,.14325129E-3,.6692E-4,0
NAPA-1,2020-061BA,2026-07-13T14:47:01.586976,15.71777925,.00024198,97.2447,269.7329,177.4893,182.6383,0,U,46320,999,32588,.4268188E-3,.55293E-3,0
JILIN-1 GAOFEN 3E,2020-065D,2026-07-13T14:58:11.412480,15.67066584,.00105098,97.2216,247.9043,77.0576,283.1858,0,U,46457,999,32389,.45663743E-3,.48839E-3,0
JILIN-1 GAOFEN 3F,2020-065E,2026-07-13T15:14:28.446144,15.63812570,.00118139,97.2175,245.1152,63.3719,296.8749,0,U,46458,999,32383,.41868754E-3,.39316E-3,0
JILIN-1 GAOFEN 3G,2020-065F,2026-07-13T14:20:22.640064,15.76650730,.00052308,97.2235,252.3672,282.8479,77.2202,0,U,46459,999,32409,.51536389E-3,.82641E-3,0
JILIN-1 GAOFEN 3H,2020-065G,2026-07-13T15:16:14.952288,15.72059759,.00061503,97.2181,248.5546,207.7738,152.3199,0,U,46460,999,32403,.49247092E-3,.64705E-3,0
HAIYANG-2C,2020-066A,2026-07-13T15:00:55.571616,13.83372513,.00076967,65.9958,149.4579,237.2419,122.7908,0,U,46469,999,29315,-.97193256E-4,-.188E-5,0
HJ-2A,2020-067A,2026-07-13T14:16:04.111392,14.76549946,.0004042,97.8828,272.3418,159.3860,200.7514,0,U,46478,999,31215,.14212977E-3,.941E-5,0
HJ-2B,2020-067B,2026-07-13T13:31:01.191936,14.76508620,.00019176,97.8893,273.3543,106.1759,253.9662,0,U,46479,999,31215,.19048468E-4,.83E-6,0
GONETS-M 17,2020-068A,2026-07-13T14:42:16.588800,12.42873886,.00219068,82.5004,331.0621,340.1809,19.8417,0,U,46486,999,26244,-.15413161E-3,-.12E-6,0
GONETS-M 18,2020-068B,2026-07-13T15:45:50.668416,12.42874899,.0019128,82.4958,330.1424,336.6638,23.3571,0,U,46487,999,26243,.14164074E-3,.29E-6,0
GONETS-M 19,2020-068C,2026-07-13T13:13:59.881728,12.42892421,.00131314,82.4982,330.6633,353.7566,6.3348,0,U,46488,999,26252,-.70507298E-3,-.88E-6,0
DEKART,2020-068H,2026-07-13T11:56:36.659328,15.37924312,.00090743,97.8736,205.6630,178.6611,181.4658,0,U,46493,999,31981,.19588435E-3,.7221E-4,0
