FLORIPASAT-1            
1 44885U 19093G   26194.50489978  .00003174  00000+0  23320-3 0  9990
2 44885  97.7934 288.9341 0010951 348.7309  11.3670 15.04136627356608
SHUNTIAN                
1 44886U 19093H   26194.57499241  .00001394  00000+0  13177-3 0  9993
2 44886  97.8009 282.6025 0011132 343.0108  17.0738 14.95273917356128
ELEKTRO-L 3             
1 44903U 19095A   26194.57609458 -.00000101  00000+0  00000+0 0  9991
2 44903   0.3215  82.1213 0001137  19.3248 113.3853  1.00271054 23974
GONETS-M 14             
1 44905U 19096A   26194.61260378  .00000076  00000+0  47777-3 0  9999
2 44905  82.5228  68.2571 0014399  93.5542 266.7185 12.42870834296960
GONETS-M 15             
1 44906U 19096B   26194.64194425  .00000081  00000+0  50876-3 0  9992
2 44906  82.5248  68.7046 0016036 115.4022 244.8720 12.42883136296930
GONETS-M 16             
1 44907U 19096C   26194.66776352  .00000014  00000+0  29384-4 0  9997
2 44907  82.5193  67.6284 0010936 154.5554 205.6067 12.42892287296924
RS-44 & BREEZE-KM R/B   
1 44909U 19096E   26194.43025578  .00000001  00000+0 -46196-4 0  9998
2 44909  82.5240 322.2668 0218550  83.0989 279.4919 12.79748942305705
JILIN-1 KUANFU 01       
1 45016U 20003A   26194.64595088  .00001478  00000+0  92576-4 0  9990
2 45016  97.5022 268.0857 0009127 202.6193 157.4636 15.10862015359324
XINGYUN-2 01            
1 45602U 20028A   26194.61627074  .00000741  00000+0  46966-4 0  9990
2 45602  97.4873 186.4951 0010918 108.1088 252.1332 15.11910824338831
XINGYUN-2 02            
1 45603U 20028B   26194.59964093  .00001203  00000+0  74480-4 0  9999
2 45603  97.5075 200.1281 0010934 170.9107 189.2323 15.11636979338829
HAIYANG-1D              
1 45721U 20036A   26194.62390792 -.00000143  00000+0 -35625-4 0  9994
2 45721  98.4554 135.7296 0004056  73.6181 286.5450 14.34180790318762
M2 PATHFINDER           
1 45727U 20037E   26194.51327424  .00000804  00000+0  61445-4 0  9992
2 45727  97.8145  26.0427 0013053  67.6872 292.5736 15.04788602329458
GAOFEN DUOMO (GFDM)     
1 45856U 20042A   26194.63020330  .00000307  00000+0  50688-4 0  9995
2 45856  97.7740 253.5531 0010794 355.7718   4.3399 14.76913989324919
ZIYUAN 3-03 (ZY 3-03)   
1 45939U 20051A   26194.62528521  .00000030  00000+0  45004-5 0  9991
2 45939  97.5373 261.6420 0002703 254.8487 105.2449 15.21191725331362
NEMO-HD                 
1 46277U 20061F   26194.62203558  .00006692  00000+0  14325-3 0  9998
2 46277  97.1911 256.3147 0000975  91.9865 268.1496 15.45116697326061
NAPA-1                  
1 46320U 20061BA  26194.61599059  .00055293  00000+0  42682-3 0  9998
2 46320  97.2447 269.7329 0002419 177.4893 182.6383 15.71777925325881
JILIN-1 GAOFEN 3E       
1 46457U 20065D   26194.62374320  .00048839  00000+0  45664-3 0  9997
2 46457  97.2216 247.9043 0010509  77.0576 283.1858 15.67066584323899
JILIN-1 GAOFEN 3F       
1 46458U 20065E   26194.63505146  .00039316  00000+0  41869-3 0  9994
2 46458  97.2175 245.1152 0011813  63.3719 296.8749 15.63812570323835
JILIN-1 GAOFEN 3G       
1 46459U 20065F   26194.59748426  .00082641  00000+0  51536-3 0  9991
2 46459  97.2235 252.3672 0005230 282.8479  77.2202 15.76650730324093
JILIN-1 GAOFEN 3H       
1 46460U 20065G   26194.63628417  .00064705  00000+0  49247-3 0  9992
2 46460  97.2181 248.5546 0006150 207.7738 152.3199 15.72059759324032
HAIYANG-2C              
1 46469U 20066A   26194.62564319 -.00000188  00000+0 -97193-4 0  9992
2 46469  65.9958 149.4579 0007696 237.2419 122.7908 13.83372513293153
HJ-2A                   
1 46478U 20067A   26194.59449203  .00000941  00000+0  14213-3 0  9999
2 46478  97.8828 272.3418 0004042 159.3860 200.7514 14.76549946312158
HJ-2B                   
1 46479U 20067B   26194.56320824  .00000083  00000+0  19048-4 0  9993
2 46479  97.8893 273.3543 0001917 106.1759 253.9662 14.76508620312154
GONETS-M 17             
1 46486U 20068A   26194.61269200 -.00000012  00000+0 -15413-3 0  9993
2 46486  82.5004 331.0621 0021906 340.1809  19.8417 12.42873886262445
GONETS-M 18             
1 46487U 20068B   26194.65683644  .00000029  00000+0  14164-3 0  9998
2 46487  82.4958 330.1424 0019128 336.6638  23.3571 12.42874899262432
GONETS-M 19             
1 46488U 20068C   26194.55138752 -.00000088  00000+0 -70507-3 0  9993
2 46488  82.4982 330.6633 0013131 353.7566   6.3348 12.42892421262529
DEKART                  
1 46493U 20068H   26194.49764652  .00007221  00000+0  19588-3 0  9992
2 46493  97.8736 205.6630 0009074 178.6611 181.4658 15.37924312319812
